{
  "type": "FeatureCollection",
  "features": [
    {
      "type": "Feature",
      "properties": {
        "norad_id": 66649,
        "name": "COSMOS 2599 (RODNIK-S 24)",
        "group": "last-30-days",
        "lat": -7.990617452026254,
        "lon": -71.27997308328592,
        "alt_km": 1498.2056459207115,
        "timestamp": "2025-12-07T09:35:08.571824+00:00",
        "meta_object_name": "COSMOS 2599 (RODNIK-S 24)",
        "meta_object_id": "2025-273C",
        "meta_epoch": "2025-12-06T22:01:33.772800",
        "meta_mean_motion": 12.41671814,
        "meta_eccentricity": 0.00082435,
        "meta_inclination": 82.5021,
        "meta_ra_of_asc_node": 290.0779,
        "meta_arg_of_pericenter": 313.4418,
        "meta_mean_anomaly": 46.5975,
        "meta_ephemeris_type": 0,
        "meta_classification_type": "U",
        "meta_norad_cat_id": 66649,
        "meta_element_set_no": 999,
        "meta_rev_at_epoch": 141,
        "meta_bstar": 4.6176361e-05,
        "meta_mean_motion_dot": 1.6e-07,
        "meta_mean_motion_ddot": 0,
        "tle_line1": "1 66649U 25273C   25340.91775200  .00000016  00000+0  46176-4 0  9999",
        "tle_line2": "2 66649  82.5021 290.0779 0008243 313.4418  46.5975 12.41671814  1413"
      },
      "geometry": {
        "type": "Point",
        "coordinates": [
          -71.27997308328592,
          -7.990617452026254
        ]
      }
    },
    {
      "type": "Feature",
      "properties": {
        "norad_id": 66650,
        "name": "BEE-1000",
        "group": "last-30-days",
        "lat": 70.8115361946995,
        "lon": -114.3151594241391,
        "alt_km": 592.8570764175993,
        "timestamp": "2025-12-07T09:35:08.571837+00:00",
        "meta_object_name": "BEE-1000",
        "meta_object_id": "2025-274A",
        "meta_epoch": "2025-12-06T18:46:20.231904",
        "meta_mean_motion": 14.91630145,
        "meta_eccentricity": 0.00104591,
        "meta_inclination": 97.7385,
        "meta_ra_of_asc_node": 268.0797,
        "meta_arg_of_pericenter": 274.4491,
        "meta_mean_anomaly": 85.5533,
        "meta_ephemeris_type": 0,
        "meta_classification_type": "U",
        "meta_norad_cat_id": 66650,
        "meta_element_set_no": 999,
        "meta_rev_at_epoch": 151,
        "meta_bstar": 0.00028243765,
        "meta_mean_motion_dot": 2.783e-05,
        "meta_mean_motion_ddot": 0,
        "tle_line1": "1 66650U 25274A   25340.78217861  .00002783  00000+0  28244-3 0  9999",
        "tle_line2": "2 66650  97.7385 268.0797 0010459 274.4491  85.5533 14.91630145  1513"
      },
      "geometry": {
        "type": "Point",
        "coordinates": [
          -114.3151594241391,
          70.8115361946995
        ]
      }
    },
    {
      "type": "Feature",
      "properties": {
        "norad_id": 66651,
        "name": "2025-274B",
        "group": "last-30-days",
        "lat": 73.22998260810229,
        "lon": -118.13892362122878,
        "alt_km": 592.664468425447,
        "timestamp": "2025-12-07T09:35:08.571847+00:00",
        "meta_object_name": "2025-274B",
        "meta_object_id": "2025-274B",
        "meta_epoch": "2025-12-06T18:45:40.493088",
        "meta_mean_motion": 14.91729352,
        "meta_eccentricity": 0.00107337,
        "meta_inclination": 97.7387,
        "meta_ra_of_asc_node": 268.0793,
        "meta_arg_of_pericenter": 274.0967,
        "meta_mean_anomaly": 85.9024,
        "meta_ephemeris_type": 0,
        "meta_classification_type": "U",
        "meta_norad_cat_id": 66651,
        "meta_element_set_no": 999,
        "meta_rev_at_epoch": 151,
        "meta_bstar": 0.00062427055,
        "meta_mean_motion_dot": 6.238e-05,
        "meta_mean_motion_ddot": 0,
        "tle_line1": "1 66651U 25274B   25340.78171867  .00006238  00000+0  62427-3 0  9995",
        "tle_line2": "2 66651  97.7387 268.0793 0010733 274.0967  85.9024 14.91729352  1519"
      },
      "geometry": {
        "type": "Point",
        "coordinates": [
          -118.13892362122878,
          73.22998260810229
        ]
      }
    },
    {
      "type": "Feature",
      "properties": {
        "norad_id": 66652,
        "name": "2025-274C",
        "group": "last-30-days",
        "lat": 77.87180841636834,
        "lon": -130.57053013801917,
        "alt_km": 591.7437754736029,
        "timestamp": "2025-12-07T09:35:08.571858+00:00",
        "meta_object_name": "2025-274C",
        "meta_object_id": "2025-274C",
        "meta_epoch": "2025-12-06T18:44:15.825408",
        "meta_mean_motion": 14.91857241,
        "meta_eccentricity": 0.00104263,
        "meta_inclination": 97.7391,
        "meta_ra_of_asc_node": 268.0813,
        "meta_arg_of_pericenter": 280.9539,
        "meta_mean_anomaly": 79.0506,
        "meta_ephemeris_type": 0,
        "meta_classification_type": "U",
        "meta_norad_cat_id": 66652,
        "meta_element_set_no": 999,
        "meta_rev_at_epoch": 151,
        "meta_bstar": 0.00042219434,
        "meta_mean_motion_dot": 4.213e-05,
        "meta_mean_motion_ddot": 0,
        "tle_line1": "1 66652U 25274C   25340.78073872  .00004213  00000+0  42219-3 0  9991",
        "tle_line2": "2 66652  97.7391 268.0813 0010426 280.9539  79.0506 14.91857241  1516"
      },
      "geometry": {
        "type": "Point",
        "coordinates": [
          -130.57053013801917,
          77.87180841636834
        ]
      }
    },
    {
      "type": "Feature",
      "properties": {
        "norad_id": 66653,
        "name": "2025-274D",
        "group": "last-30-days",
        "lat": 78.08130870104853,
        "lon": -131.4222613783817,
        "alt_km": 592.4372924081545,
        "timestamp": "2025-12-07T09:35:08.571870+00:00",
        "meta_object_name": "2025-274D",
        "meta_object_id": "2025-274D",
        "meta_epoch": "2025-12-06T18:44:11.238432",
        "meta_mean_motion": 14.918606,
        "meta_eccentricity": 0.00112399,
        "meta_inclination": 97.7389,
        "meta_ra_of_asc_node": 268.0815,
        "meta_arg_of_pericenter": 276.5881,
        "meta_mean_anomaly": 83.4058,
        "meta_ephemeris_type": 0,
        "meta_classification_type": "U",
        "meta_norad_cat_id": 66653,
        "meta_element_set_no": 999,
        "meta_rev_at_epoch": 151,
        "meta_bstar": 0.00037475306,
        "meta_mean_motion_dot": 3.734e-05,
        "meta_mean_motion_ddot": 0,
        "tle_line1": "1 66653U 25274D   25340.78068563  .00003734  00000+0  37475-3 0  9998",
        "tle_line2": "2 66653  97.7389 268.0815 0011239 276.5881  83.4058 14.91860600  1514"
      },
      "geometry": {
        "type": "Point",
        "coordinates": [
          -131.4222613783817,
          78.08130870104853
        ]
      }
    },
    {
      "type": "Feature",
      "properties": {
        "norad_id": 66654,
        "name": "JACK E",
        "group": "last-30-days",
        "lat": 81.78267400963225,
        "lon": -161.652411451533,
        "alt_km": 592.2721474191794,
        "timestamp": "2025-12-07T09:35:08.571880+00:00",
        "meta_object_name": "JACK E",
        "meta_object_id": "2025-274E",
        "meta_epoch": "2025-12-06T18:42:35.432064",
        "meta_mean_motion": 14.92032592,
        "meta_eccentricity": 0.00118202,
        "meta_inclination": 97.7393,
        "meta_ra_of_asc_node": 268.0833,
        "meta_arg_of_pericenter": 278.1013,
        "meta_mean_anomaly": 81.8865,
        "meta_ephemeris_type": 0,
        "meta_classification_type": "U",
        "meta_norad_cat_id": 66654,
        "meta_element_set_no": 999,
        "meta_rev_at_epoch": 151,
        "meta_bstar": 0.00043780536,
        "meta_mean_motion_dot": 4.392e-05,
        "meta_mean_motion_ddot": 0,
        "tle_line1": "1 66654U 25274E   25340.77957676  .00004392  00000+0  43781-3 0  9998",
        "tle_line2": "2 66654  97.7393 268.0833 0011820 278.1013  81.8865 14.92032592  1511"
      },
      "geometry": {
        "type": "Point",
        "coordinates": [
          -161.652411451533,
          81.78267400963225
        ]
      }
    },
    {
      "type": "Feature",
      "properties": {
        "norad_id": 66655,
        "name": "2025-274F",
        "group": "last-30-days",
        "lat": 80.91793821993335,
        "lon": 146.93904771349776,
        "alt_km": 586.2460286777423,
        "timestamp": "2025-12-07T09:35:08.571890+00:00",
        "meta_object_name": "2025-274F",
        "meta_object_id": "2025-274F",
        "meta_epoch": "2025-12-06T20:17:23.702208",
        "meta_mean_motion": 14.92429092,
        "meta_eccentricity": 0.00065248,
        "meta_inclination": 97.7352,
        "meta_ra_of_asc_node": 268.1503,
        "meta_arg_of_pericenter": 318.9562,
        "meta_mean_anomaly": 41.1166,
        "meta_ephemeris_type": 0,
        "meta_classification_type": "U",
        "meta_norad_cat_id": 66655,
        "meta_element_set_no": 999,
        "meta_rev_at_epoch": 152,
        "meta_bstar": 0.0016472003,
        "meta_mean_motion_dot": 0.0001686,
        "meta_mean_motion_ddot": 0,
        "tle_line1": "1 66655U 25274F   25340.84541322  .00016860  00000+0  16472-2 0  9993",
        "tle_line2": "2 66655  97.7352 268.1503 0006524 318.9562  41.1166 14.92429092  1528"
      },
      "geometry": {
        "type": "Point",
        "coordinates": [
          146.93904771349776,
          80.91793821993335
        ]
      }
    }
  ]
}